{"type": "FeatureCollection", "features": [ {"type": "Feature", "properties": {"norad_id": 29750, "name": "FENGYUN 1C DEB", "group": "fengyun-1c-debris", "lat": -26.366681535521238, "lon": -178.40532271620944, "alt_km": 880.6344534880909, "timestamp": "2025-12-02T13:52:17.533207+00:00", "meta": {"OBJECT_NAME": "FENGYUN 1C DEB", "OBJECT_ID": "1999-025AQ", "EPOCH": "2025-12-02T01:13:21.503712", "MEAN_MOTION": 14.09628567, "ECCENTRICITY": 0.00354009, "INCLINATION": 98.7559, "RA_OF_ASC_NODE": 5.4634, "ARG_OF_PERICENTER": 332.3527, "MEAN_ANOMALY": 81.5292, "EPHEMERIS_TYPE": 0, "CLASSIFICATION_TYPE": "U", "NORAD_CAT_ID": 29750, "ELEMENT_SET_NO": 999, "REV_AT_EPOCH": 96923, "BSTAR": 0.00026732787, "MEAN_MOTION_DOT": 4.28e-06, "MEAN_MOTION_DDOT": 0}, "tle": {"line1": "1 29750U 99025AQ  25336.05094333  .00000428  00000+0  26733-3 0  9991", "line2": "2 29750  98.7559   5.4634 0035400 332.3527  81.5292 14.09628567969231"}}, "geometry": {"type": "Point", "coordinates": [-178.40532271620944, -26.366681535521238]}}, {"type": "Feature", "properties": {"norad_id": 29751, "name": "FENGYUN 1C DEB", "group": "fengyun-1c-debris", "lat": -13.182137442130516, "lon": -177.2742026474105, "alt_km": 759.0306111087075, "timestamp": "2025-12-02T13:52:17.533217+00:00", "meta": {"OBJECT_NAME": "FENGYUN 1C DEB", "OBJECT_ID": "1999-025AR", "EPOCH": "2025-12-02T01:25:37.109856", "MEAN_MOTION": 14.23615499, "ECCENTRICITY": 0.00894318, "INCLINATION": 98.5425, "RA_OF_ASC_NODE": 4.2397, "ARG_OF_PERICENTER": 170.1369, "MEAN_ANOMALY": 246.7231, "EPHEMERIS_TYPE": 0, "CLASSIFICATION_TYPE": "U", "NORAD_CAT_ID": 29751, "ELEMENT_SET_NO": 999, "REV_AT_EPOCH": 97921, "BSTAR": 0.00019538029, "MEAN_MOTION_DOT": 4.22e-06, "MEAN_MOTION_DDOT": 0}, "tle": {"line1": "1 29751U 99025AR  25336.05945729  .00000422  00000+0  19538-3 0  9995", "line2": "2 29751  98.5425   4.2397 0089431 170.1369 246.7231 14.23615499979213"}}, "geometry": {"type": "Point", "coordinates": [-177.2742026474105, -13.182137442130516]}}, {"type": "Feature", "properties": {"norad_id": 29754, "name": "FENGYUN 1C DEB", "group": "fengyun-1c-debris", "lat": 48.32856594383546, "lon": -90.5861701048254, "alt_km": 843.0151832547308, "timestamp": "2025-12-02T13:52:17.533227+00:00", "meta": {"OBJECT_NAME": "FENGYUN 1C DEB", "OBJECT_ID": "1999-025AU", "EPOCH": "2025-12-02T06:44:56.593248", "MEAN_MOTION": 14.19080083, "ECCENTRICITY": 0.00355008, "INCLINATION": 98.8846, "RA_OF_ASC_NODE": 78.9948, "ARG_OF_PERICENTER": 269.5355, "MEAN_ANOMALY": 146.2917, "EPHEMERIS_TYPE": 0, "CLASSIFICATION_TYPE": "U", "NORAD_CAT_ID": 29754, "ELEMENT_SET_NO": 999, "REV_AT_EPOCH": 97206, "BSTAR": 0.0012522113, "MEAN_MOTION_DOT": 2.589e-05, "MEAN_MOTION_DDOT": 0}, "tle": {"line1": "1 29754U 99025AU  25336.28121057  .00002589  00000+0  12522-2 0  9994", "line2": "2 29754  98.8846  78.9948 0035500 269.5355 146.2917 14.19080083972063"}}, "geometry": {"type": "Point", "coordinates": [-90.5861701048254, 48.32856594383546]}}, {"type": "Feature", "properties": {"norad_id": 29758, "name": "FENGYUN 1C DEB", "group": "fengyun-1c-debris", "lat": 16.76048011635899, "lon": 89.24122254466766, "alt_km": 745.2290607341338, "timestamp": "2025-12-02T13:52:17.533238+00:00", "meta": {"OBJECT_NAME": "FENGYUN 1C DEB", "OBJECT_ID": "1999-025AY", "EPOCH": "2025-12-02T07:22:54.693408", "MEAN_MOTION": 14.40709675, "ECCENTRICITY": 0.00202439, "INCLINATION": 98.8556, "RA_OF_ASC_NODE": 91.6526, "ARG_OF_PERICENTER": 340.1313, "MEAN_ANOMALY": 75.1445, "EPHEMERIS_TYPE": 0, "CLASSIFICATION_TYPE": "U", "NORAD_CAT_ID": 29758, "ELEMENT_SET_NO": 999, "REV_AT_EPOCH": 97521, "BSTAR": 0.0031007703, "MEAN_MOTION_DOT": 9.898e-05, "MEAN_MOTION_DDOT": 0}, "tle": {"line1": "1 29758U 99025AY  25336.30757747  .00009898  00000+0  31008-2 0  9992", "line2": "2 29758  98.8556  91.6526 0020243 340.1313  75.1445 14.40709675975212"}}, "geometry": {"type": "Point", "coordinates": [89.24122254466766, 16.76048011635899]}}, {"type": "Feature", "properties": {"norad_id": 29760, "name": "FENGYUN 1C DEB", "group": "fengyun-1c-debris", "lat": -29.963795763051948, "lon": 153.9346048845428, "alt_km": 777.6186245990857, "timestamp": "2025-12-02T13:52:17.533248+00:00", "meta": {"OBJECT_NAME": "FENGYUN 1C DEB", "OBJECT_ID": "1999-025BA", "EPOCH": "2025-12-02T06:03:13.603392", "MEAN_MOTION": 14.08277775, "ECCENTRICITY": 0.01303281, "INCLINATION": 98.7624, "RA_OF_ASC_NODE": 338.7195, "ARG_OF_PERICENTER": 203.1885, "MEAN_ANOMALY": 156.3372, "EPHEMERIS_TYPE": 0, "CLASSIFICATION_TYPE": "U", "NORAD_CAT_ID": 29760, "ELEMENT_SET_NO": 999, "REV_AT_EPOCH": 96945, "BSTAR": 0.00017480275, "MEAN_MOTION_DOT": 2.8e-06, "MEAN_MOTION_DDOT": 0}, "tle": {"line1": "1 29760U 99025BA  25336.25224078  .00000280  00000+0  17480-3 0  9990", "line2": "2 29760  98.7624 338.7195 0130328 203.1885 156.3372 14.08277775969450"}}, "geometry": {"type": "Point", "coordinates": [153.9346048845428, -29.963795763051948]}}, {"type": "Feature", "properties": {"norad_id": 29762, "name": "FENGYUN 1C DEB", "group": "fengyun-1c-debris", "lat": 14.627913708196703, "lon": -42.62776560208345, "alt_km": 672.3406314197946, "timestamp": "2025-12-02T13:52:17.533259+00:00", "meta": {"OBJECT_NAME": "FENGYUN 1C DEB", "OBJECT_ID": "1999-025BC", "EPOCH": "2025-12-01T22:53:09.436416", "MEAN_MOTION": 14.22540201, "ECCENTRICITY": 0.02046872, "INCLINATION": 98.5782, "RA_OF_ASC_NODE": 319.0218, "ARG_OF_PERICENTER": 7.0035, "MEAN_ANOMALY": 51.6898, "EPHEMERIS_TYPE": 0, "CLASSIFICATION_TYPE": "U", "NORAD_CAT_ID": 29762, "ELEMENT_SET_NO": 999, "REV_AT_EPOCH": 97795, "BSTAR": 0.00047906301, "MEAN_MOTION_DOT": 1.279e-05, "MEAN_MOTION_DDOT": 0}, "tle": {"line1": "1 29762U 99025BC  25335.95358144  .00001279  00000+0  47906-3 0  9995", "line2": "2 29762  98.5782 319.0218 0204687   7.0035  51.6898 14.22540201977958"}}, "geometry": {"type": "Point", "coordinates": [-42.62776560208345, 14.627913708196703]}}, {"type": "Feature", "properties": {"norad_id": 29763, "name": "FENGYUN 1C DEB", "group": "fengyun-1c-debris", "lat": 54.51909891715024, "lon": -56.20867525811015, "alt_km": 943.704332120009, "timestamp": "2025-12-02T13:52:17.533269+00:00", "meta": {"OBJECT_NAME": "FENGYUN 1C DEB", "OBJECT_ID": "1999-025BD", "EPOCH": "2025-12-02T05:09:54.577728", "MEAN_MOTION": 14.07866452, "ECCENTRICITY": 0.01269282, "INCLINATION": 98.7601, "RA_OF_ASC_NODE": 315.9324, "ARG_OF_PERICENTER": 210.2757, "MEAN_ANOMALY": 168.3252, "EPHEMERIS_TYPE": 0, "CLASSIFICATION_TYPE": "U", "NORAD_CAT_ID": 29763, "ELEMENT_SET_NO": 999, "REV_AT_EPOCH": 96902, "BSTAR": 0.00019175173, "MEAN_MOTION_DOT": 3.07e-06, "MEAN_MOTION_DDOT": 0}, "tle": {"line1": "1 29763U 99025BD  25336.21521502  .00000307  00000+0  19175-3 0  9994", "line2": "2 29763  98.7601 315.9324 0126928 210.2757 168.3252 14.07866452969025"}}, "geometry": {"type": "Point", "coordinates": [-56.20867525811015, 54.51909891715024]}}, {"type": "Feature", "properties": {"norad_id": 29765, "name": "FENGYUN 1C DEB", "group": "fengyun-1c-debris", "lat": 31.119902342555914, "lon": -179.53306610153743, "alt_km": 846.1923000237621, "timestamp": "2025-12-02T13:52:17.533279+00:00", "meta": {"OBJECT_NAME": "FENGYUN 1C DEB", "OBJECT_ID": "1999-025BF", "EPOCH": "2025-12-02T08:05:17.141280", "MEAN_MOTION": 14.02147322, "ECCENTRICITY": 0.00595318, "INCLINATION": 98.831, "RA_OF_ASC_NODE": 354.8482, "ARG_OF_PERICENTER": 121.4399, "MEAN_ANOMALY": 250.9003, "EPHEMERIS_TYPE": 0, "CLASSIFICATION_TYPE": "U", "NORAD_CAT_ID": 29765, "ELEMENT_SET_NO": 999, "REV_AT_EPOCH": 96605, "BSTAR": 0.00027846233, "MEAN_MOTION_DOT": 3.9e-06, "MEAN_MOTION_DDOT": 0}, "tle": {"line1": "1 29765U 99025BF  25336.33700395  .00000390  00000+0  27846-3 0  9994", "line2": "2 29765  98.8310 354.8482 0059531 121.4399 250.9003 14.02147322966057"}}, "geometry": {"type": "Point", "coordinates": [-179.53306610153743, 31.119902342555914]}}, {"type": "Feature", "properties": {"norad_id": 29766, "name": "FENGYUN 1C DEB", "group": "fengyun-1c-debris", "lat": 53.44777447155668, "lon": 118.66078214361605, "alt_km": 1004.3781193227842, "timestamp": "2025-12-02T13:52:17.533289+00:00", "meta": {"OBJECT_NAME": "FENGYUN 1C DEB", "OBJECT_ID": "1999-025BG", "EPOCH": "2025-12-02T03:01:06.609216", "MEAN_MOTION": 13.96971215, "ECCENTRICITY": 0.01470701, "INCLINATION": 98.6836, "RA_OF_ASC_NODE": 286.3375, "ARG_OF_PERICENTER": 317.6624, "MEAN_ANOMALY": 54.648, "EPHEMERIS_TYPE": 0, "CLASSIFICATION_TYPE": "U", "NORAD_CAT_ID": 29766, "ELEMENT_SET_NO": 999, "REV_AT_EPOCH": 95656, "BSTAR": 0.0017834695, "MEAN_MOTION_DOT": 2.682e-05, "MEAN_MOTION_DDOT": 0}, "tle": {"line1": "1 29766U 99025BG  25336.12577094  .00002682  00000+0  17835-2 0  9992", "line2": "2 29766  98.6836 286.3375 0147070 317.6624  54.6480 13.96971215956566"}}, "geometry": {"type": "Point", "coordinates": [118.66078214361605, 53.44777447155668]}}, {"type": "Feature", "properties": {"norad_id": 29767, "name": "FENGYUN 1C DEB", "group": "fengyun-1c-debris", "lat": 28.253706247681016, "lon": 130.69931030121728, "alt_km": 758.8577233448268, "timestamp": "2025-12-02T13:52:17.533300+00:00", "meta": {"OBJECT_NAME": "FENGYUN 1C DEB", "OBJECT_ID": "1999-025BH", "EPOCH": "2025-12-02T05:11:58.358688", "MEAN_MOTION": 14.0318781, "ECCENTRICITY": 0.0333016, "INCLINATION": 98.1981, "RA_OF_ASC_NODE": 305.9297, "ARG_OF_PERICENTER": 91.1575, "MEAN_ANOMALY": 32.6293, "EPHEMERIS_TYPE": 0, "CLASSIFICATION_TYPE": "U", "NORAD_CAT_ID": 29767, "ELEMENT_SET_NO": 999, "REV_AT_EPOCH": 95452, "BSTAR": 0.0020454658, "MEAN_MOTION_DOT": 5.177e-05, "MEAN_MOTION_DDOT": 0}, "tle": {"line1": "1 29767U 99025BH  25336.21664767  .00005177  00000+0  20455-2 0  9991", "line2": "2 29767  98.1981 305.9297 0333016  91.1575  32.6293 14.03187810954521"}}, "geometry": {"type": "Point", "coordinates": [130.69931030121728, 28.253706247681016]}}]}